{"BD":{"name":"Bangladesh","a2":"BD","a3":"BGD","capital":"Dhaka","calling_code":"880","currency":"BDT","latitude":23.684994,"longitude":90.356331},"BE":{"name":"Belgium","a2":"BE","a3":"BEL","capital":"Brussels","calling_code":"32","currency":"EUR","latitude":50.503887,"longitude":4.469936},"BF":{"name":"Burkina Faso","a2":"BF","a3":"BFA","capital":"Ouagadougou","calling_code":"226","currency":"XOF","latitude":12.238333,"longitude":-1.561593},"BG":{"name":"Bulgaria","a2":"BG","a3":"BGR","capital":"Sofia","calling_code":"359","currency":"BGN","latitude":42.733883,"longitude":25.48583},"BA":{"name":"Bosnia and Herzegovina","a2":"BA","a3":"BIH","capital":"Sarajevo","calling_code":"387","currency":"BAM","latitude":43.915886,"longitude":17.679076},"BB":{"name":"Barbados","a2":"BB","a3":"BRB","capital":"Bridgetown","calling_code":"+1-246","currency":"BBD","latitude":13.193887,"longitude":-59.543198},"WF":{"name":"Wallis and Futuna","a2":"WF","a3":"WLF","capital":"Mata Utu","calling_code":"681","currency":"XPF","latitude":-13.768752,"longitude":-177.156097},"BL":{"name":"Saint Barthelemy","a2":"BL","a3":"BLM","capital":"Gustavia","calling_code":"590","currency":"EUR"},"BM":{"name":"Bermuda","a2":"BM","a3":"BMU","capital":"Hamilton","calling_code":"+1-441","currency":"BMD","latitude":32.321384,"longitude":-64.75737},"BN":{"name":"Brunei","a2":"BN","a3":"BRN","capital":"Bandar Seri Begawan","calling_code":"673","currency":"BND","latitude":4.535277,"longitude":114.727669},"BO":{"name":"Bolivia","a2":"BO","a3":"BOL","capital":"Sucre","calling_code":"591","currency":"BOB","latitude":-16.290154,"longitude":-63.588653},"BH":{"name":"Bahrain","a2":"BH","a3":"BHR","capital":"Manama","calling_code":"973","currency":"BHD","latitude":25.930414,"longitude":50.637772},"BI":{"name":"Burundi","a2":"BI","a3":"BDI","capital":"Bujumbura","calling_code":"257","currency":"BIF","latitude":-3.373056,"longitude":29.918886},"BJ":{"name":"Benin","a2":"BJ","a3":"BEN","capital":"Porto-Novo","calling_code":"229","currency":"XOF","latitude":9.30769,"longitude":2.315834},"BT":{"name":"Bhutan","a2":"BT","a3":"BTN","capital":"Thimphu","calling_code":"975","currency":"BTN","latitude":27.514162,"longitude":90.433601},"JM":{"name":"Jamaica","a2":"JM","a3":"JAM","capital":"Kingston","calling_code":"+1-876","currency":"JMD","latitude":18.109581,"longitude":-77.297508},"BV":{"name":"Bouvet Island","a2":"BV","a3":"BVT","capital":"","calling_code":"","currency":"NOK","latitude":-54.423199,"longitude":3.413194},"BW":{"name":"Botswana","a2":"BW","a3":"BWA","capital":"Gaborone","calling_code":"267","currency":"BWP","latitude":-22.328474,"longitude":24.684866},"WS":{"name":"Samoa","a2":"WS","a3":"WSM","capital":"Apia","calling_code":"685","currency":"WST","latitude":-13.759029,"longitude":-172.104629},"BQ":{"name":"Bonaire, Saint Eustatius and Saba ","a2":"BQ","a3":"BES","capital":"","calling_code":"599","currency":"USD"},"BR":{"name":"Brazil","a2":"BR","a3":"BRA","capital":"Brasilia","calling_code":"55","currency":"BRL","latitude":-14.235004,"longitude":-51.92528},"BS":{"name":"Bahamas","a2":"BS","a3":"BHS","capital":"Nassau","calling_code":"+1-242","currency":"BSD","latitude":25.03428,"longitude":-77.39628},"JE":{"name":"Jersey","a2":"JE","a3":"JEY","capital":"Saint Helier","calling_code":"+44-1534","currency":"GBP","latitude":49.214439,"longitude":-2.13125},"BY":{"name":"Belarus","a2":"BY","a3":"BLR","capital":"Minsk","calling_code":"375","currency":"BYR","latitude":53.709807,"longitude":27.953389},"BZ":{"name":"Belize","a2":"BZ","a3":"BLZ","capital":"Belmopan","calling_code":"501","currency":"BZD","latitude":17.189877,"longitude":-88.49765},"RU":{"name":"Russia","a2":"RU","a3":"RUS","capital":"Moscow","calling_code":"7","currency":"RUB","latitude":61.52401,"longitude":105.318756},"RW":{"name":"Rwanda","a2":"RW","a3":"RWA","capital":"Kigali","calling_code":"250","currency":"RWF","latitude":-1.940278,"longitude":29.873888},"RS":{"name":"Serbia","a2":"RS","a3":"SRB","capital":"Belgrade","calling_code":"381","currency":"RSD","latitude":44.016521,"longitude":21.005859},"TL":{"name":"East Timor","a2":"TL","a3":"TLS","capital":"Dili","calling_code":"670","currency":"USD","latitude":-8.874217,"longitude":125.727539},"RE":{"name":"Reunion","a2":"RE","a3":"REU","capital":"Saint-Denis","calling_code":"262","currency":"EUR","latitude":-21.115141,"longitude":55.536384},"TM":{"name":"Turkmenistan","a2":"TM","a3":"TKM","capital":"Ashgabat","calling_code":"993","currency":"TMT","latitude":38.969719,"longitude":59.556278},"TJ":{"name":"Tajikistan","a2":"TJ","a3":"TJK","capital":"Dushanbe","calling_code":"992","currency":"TJS","latitude":38.861034,"longitude":71.276093},"RO":{"name":"Romania","a2":"RO","a3":"ROU","capital":"Bucharest","calling_code":"40","currency":"RON","latitude":45.943161,"longitude":24.96676},"TK":{"name":"Tokelau","a2":"TK","a3":"TKL","capital":"","calling_code":"690","currency":"NZD","latitude":-8.967363,"longitude":-171.855881},"GW":{"name":"Guinea-Bissau","a2":"GW","a3":"GNB","capital":"Bissau","calling_code":"245","currency":"XOF","latitude":11.803749,"longitude":-15.180413},"GU":{"name":"Guam","a2":"GU","a3":"GUM","capital":"Hagatna","calling_code":"+1-671","currency":"USD","latitude":13.444304,"longitude":144.793731},"GT":{"name":"Guatemala","a2":"GT","a3":"GTM","capital":"Guatemala City","calling_code":"502","currency":"GTQ","latitude":15.783471,"longitude":-90.230759},"GS":{"name":"South Georgia and the South Sandwich Islands","a2":"GS","a3":"SGS","capital":"Grytviken","calling_code":"","currency":"GBP","latitude":-54.429579,"longitude":-36.587909},"GR":{"name":"Greece","a2":"GR","a3":"GRC","capital":"Athens","calling_code":"30","currency":"EUR","latitude":39.074208,"longitude":21.824312},"GQ":{"name":"Equatorial Guinea","a2":"GQ","a3":"GNQ","capital":"Malabo","calling_code":"240","currency":"XAF","latitude":1.650801,"longitude":10.267895},"GP":{"name":"Guadeloupe","a2":"GP","a3":"GLP","capital":"Basse-Terre","calling_code":"590","currency":"EUR","latitude":16.995971,"longitude":-62.067641},"JP":{"name":"Japan","a2":"JP","a3":"JPN","capital":"Tokyo","calling_code":"81","currency":"JPY","latitude":36.204824,"longitude":138.252924},"GY":{"name":"Guyana","a2":"GY","a3":"GUY","capital":"Georgetown","calling_code":"592","currency":"GYD","latitude":4.860416,"longitude":-58.93018},"GG":{"name":"Guernsey","a2":"GG","a3":"GGY","capital":"St Peter Port","calling_code":"+44-1481","currency":"GBP","latitude":49.465691,"longitude":-2.585278},"GF":{"name":"French Guiana","a2":"GF","a3":"GUF","capital":"Cayenne","calling_code":"594","currency":"EUR","latitude":3.933889,"longitude":-53.125782},"GE":{"name":"Georgia","a2":"GE","a3":"GEO","capital":"Tbilisi","calling_code":"995","currency":"GEL","latitude":42.315407,"longitude":43.356892},"GD":{"name":"Grenada","a2":"GD","a3":"GRD","capital":"St. George's","calling_code":"+1-473","currency":"XCD","latitude":12.262776,"longitude":-61.604171},"GB":{"name":"United Kingdom","a2":"GB","a3":"GBR","capital":"London","calling_code":"44","currency":"GBP","latitude":55.378051,"longitude":-3.435973},"GA":{"name":"Gabon","a2":"GA","a3":"GAB","capital":"Libreville","calling_code":"241","currency":"XAF","latitude":-0.803689,"longitude":11.609444},"SV":{"name":"El Salvador","a2":"SV","a3":"SLV","capital":"San Salvador","calling_code":"503","currency":"USD","latitude":13.794185,"longitude":-88.89653},"GN":{"name":"Guinea","a2":"GN","a3":"GIN","capital":"Conakry","calling_code":"224","currency":"GNF","latitude":9.945587,"longitude":-9.696645},"GM":{"name":"Gambia","a2":"GM","a3":"GMB","capital":"Banjul","calling_code":"220","currency":"GMD","latitude":13.443182,"longitude":-15.310139},"GL":{"name":"Greenland","a2":"GL","a3":"GRL","capital":"Nuuk","calling_code":"299","currency":"DKK","latitude":71.706936,"longitude":-42.604303},"GI":{"name":"Gibraltar","a2":"GI","a3":"GIB","capital":"Gibraltar","calling_code":"350","currency":"GIP","latitude":36.137741,"longitude":-5.345374},"GH":{"name":"Ghana","a2":"GH","a3":"GHA","capital":"Accra","calling_code":"233","currency":"GHS","latitude":7.946527,"longitude":-1.023194},"OM":{"name":"Oman","a2":"OM","a3":"OMN","capital":"Muscat","calling_code":"968","currency":"OMR","latitude":21.512583,"longitude":55.923255},"TN":{"name":"Tunisia","a2":"TN","a3":"TUN","capital":"Tunis","calling_code":"216","currency":"TND","latitude":33.886917,"longitude":9.537499},"JO":{"name":"Jordan","a2":"JO","a3":"JOR","capital":"Amman","calling_code":"962","currency":"JOD","latitude":30.585164,"longitude":36.238414},"HR":{"name":"Croatia","a2":"HR","a3":"HRV","capital":"Zagreb","calling_code":"385","currency":"HRK","latitude":45.1,"longitude":15.2},"HT":{"name":"Haiti","a2":"HT","a3":"HTI","capital":"Port-au-Prince","calling_code":"509","currency":"HTG","latitude":18.971187,"longitude":-72.285215},"HU":{"name":"Hungary","a2":"HU","a3":"HUN","capital":"Budapest","calling_code":"36","currency":"HUF","latitude":47.162494,"longitude":19.503304},"HK":{"name":"Hong Kong","a2":"HK","a3":"HKG","capital":"Hong Kong","calling_code":"852","currency":"HKD","latitude":22.396428,"longitude":114.109497},"HN":{"name":"Honduras","a2":"HN","a3":"HND","capital":"Tegucigalpa","calling_code":"504","currency":"HNL","latitude":15.199999,"longitude":-86.241905},"HM":{"name":"Heard Island and McDonald Islands","a2":"HM","a3":"HMD","capital":"","calling_code":" ","currency":"AUD","latitude":-53.08181,"longitude":73.504158},"VE":{"name":"Venezuela","a2":"VE","a3":"VEN","capital":"Caracas","calling_code":"58","currency":"VEF","latitude":6.42375,"longitude":-66.58973},"PR":{"name":"Puerto Rico","a2":"PR","a3":"PRI","capital":"San Juan","calling_code":"+1-787 and 1-939","currency":"USD","latitude":18.220833,"longitude":-66.590149},"PS":{"name":"Palestinian Territory","a2":"PS","a3":"PSE","capital":"East Jerusalem","calling_code":"970","currency":"ILS","latitude":31.952162,"longitude":35.233154},"PW":{"name":"Palau","a2":"PW","a3":"PLW","capital":"Melekeok","calling_code":"680","currency":"USD","latitude":7.51498,"longitude":134.58252},"PT":{"name":"Portugal","a2":"PT","a3":"PRT","capital":"Lisbon","calling_code":"351","currency":"EUR","latitude":39.399872,"longitude":-8.224454},"SJ":{"name":"Svalbard and Jan Mayen","a2":"SJ","a3":"SJM","capital":"Longyearbyen","calling_code":"47","currency":"NOK","latitude":77.553604,"longitude":23.670272},"PY":{"name":"Paraguay","a2":"PY","a3":"PRY","capital":"Asuncion","calling_code":"595","currency":"PYG","latitude":-23.442503,"longitude":-58.443832},"IQ":{"name":"Iraq","a2":"IQ","a3":"IRQ","capital":"Baghdad","calling_code":"964","currency":"IQD","latitude":33.223191,"longitude":43.679291},"PA":{"name":"Panama","a2":"PA","a3":"PAN","capital":"Panama City","calling_code":"507","currency":"PAB","latitude":8.537981,"longitude":-80.782127},"PF":{"name":"French Polynesia","a2":"PF","a3":"PYF","capital":"Papeete","calling_code":"689","currency":"XPF","latitude":-17.679742,"longitude":-149.406843},"PG":{"name":"Papua New Guinea","a2":"PG","a3":"PNG","capital":"Port Moresby","calling_code":"675","currency":"PGK","latitude":-6.314993,"longitude":143.95555},"PE":{"name":"Peru","a2":"PE","a3":"PER","capital":"Lima","calling_code":"51","currency":"PEN","latitude":-9.189967,"longitude":-75.015152},"PK":{"name":"Pakistan","a2":"PK","a3":"PAK","capital":"Islamabad","calling_code":"92","currency":"PKR","latitude":30.375321,"longitude":69.345116},"PH":{"name":"Philippines","a2":"PH","a3":"PHL","capital":"Manila","calling_code":"63","currency":"PHP","latitude":12.879721,"longitude":121.774017},"PN":{"name":"Pitcairn","a2":"PN","a3":"PCN","capital":"Adamstown","calling_code":"870","currency":"NZD","latitude":-24.703615,"longitude":-127.439308},"PL":{"name":"Poland","a2":"PL","a3":"POL","capital":"Warsaw","calling_code":"48","currency":"PLN","latitude":51.919438,"longitude":19.145136},"PM":{"name":"Saint Pierre and Miquelon","a2":"PM","a3":"SPM","capital":"Saint-Pierre","calling_code":"508","currency":"EUR","latitude":46.941936,"longitude":-56.27111},"ZM":{"name":"Zambia","a2":"ZM","a3":"ZMB","capital":"Lusaka","calling_code":"260","currency":"ZMK","latitude":-13.133897,"longitude":27.849332},"EH":{"name":"Western Sahara","a2":"EH","a3":"ESH","capital":"El-Aaiun","calling_code":"212","currency":"MAD","latitude":24.215527,"longitude":-12.885834},"EE":{"name":"Estonia","a2":"EE","a3":"EST","capital":"Tallinn","calling_code":"372","currency":"EUR","latitude":58.595272,"longitude":25.013607},"EG":{"name":"Egypt","a2":"EG","a3":"EGY","capital":"Cairo","calling_code":"20","currency":"EGP","latitude":26.820553,"longitude":30.802498},"ZA":{"name":"South Africa","a2":"ZA","a3":"ZAF","capital":"Pretoria","calling_code":"27","currency":"ZAR","latitude":-30.559482,"longitude":22.937506},"EC":{"name":"Ecuador","a2":"EC","a3":"ECU","capital":"Quito","calling_code":"593","currency":"USD","latitude":-1.831239,"longitude":-78.183406},"IT":{"name":"Italy","a2":"IT","a3":"ITA","capital":"Rome","calling_code":"39","currency":"EUR","latitude":41.87194,"longitude":12.56738},"VN":{"name":"Vietnam","a2":"VN","a3":"VNM","capital":"Hanoi","calling_code":"84","currency":"VND","latitude":14.058324,"longitude":108.277199},"SB":{"name":"Solomon Islands","a2":"SB","a3":"SLB","capital":"Honiara","calling_code":"677","currency":"SBD","latitude":-9.64571,"longitude":160.156194},"ET":{"name":"Ethiopia","a2":"ET","a3":"ETH","capital":"Addis Ababa","calling_code":"251","currency":"ETB","latitude":9.145,"longitude":40.489673},"SO":{"name":"Somalia","a2":"SO","a3":"SOM","capital":"Mogadishu","calling_code":"252","currency":"SOS","latitude":5.152149,"longitude":46.199616},"ZW":{"name":"Zimbabwe","a2":"ZW","a3":"ZWE","capital":"Harare","calling_code":"263","currency":"ZWL","latitude":-19.015438,"longitude":29.154857},"SA":{"name":"Saudi Arabia","a2":"SA","a3":"SAU","capital":"Riyadh","calling_code":"966","currency":"SAR","latitude":23.885942,"longitude":45.079162},"ES":{"name":"Spain","a2":"ES","a3":"ESP","capital":"Madrid","calling_code":"34","currency":"EUR","latitude":40.463667,"longitude":-3.74922},"ER":{"name":"Eritrea","a2":"ER","a3":"ERI","capital":"Asmara","calling_code":"291","currency":"ERN","latitude":15.179384,"longitude":39.782334},"ME":{"name":"Montenegro","a2":"ME","a3":"MNE","capital":"Podgorica","calling_code":"382","currency":"EUR","latitude":42.708678,"longitude":19.37439},"MD":{"name":"Moldova","a2":"MD","a3":"MDA","capital":"Chisinau","calling_code":"373","currency":"MDL","latitude":47.411631,"longitude":28.369885},"MG":{"name":"Madagascar","a2":"MG","a3":"MDG","capital":"Antananarivo","calling_code":"261","currency":"MGA","latitude":-18.766947,"longitude":46.869107},"MF":{"name":"Saint Martin","a2":"MF","a3":"MAF","capital":"Marigot","calling_code":"590","currency":"EUR"},"MA":{"name":"Morocco","a2":"MA","a3":"MAR","capital":"Rabat","calling_code":"212","currency":"MAD","latitude":31.791702,"longitude":-7.09262},"MC":{"name":"Monaco","a2":"MC","a3":"MCO","capital":"Monaco","calling_code":"377","currency":"EUR","latitude":43.750298,"longitude":7.412841},"UZ":{"name":"Uzbekistan","a2":"UZ","a3":"UZB","capital":"Tashkent","calling_code":"998","currency":"UZS","latitude":41.377491,"longitude":64.585262},"MM":{"name":"Myanmar","a2":"MM","a3":"MMR","capital":"Nay Pyi Taw","calling_code":"95","currency":"MMK","latitude":21.913965,"longitude":95.956223},"ML":{"name":"Mali","a2":"ML","a3":"MLI","capital":"Bamako","calling_code":"223","currency":"XOF","latitude":17.570692,"longitude":-3.996166},"MO":{"name":"Macao","a2":"MO","a3":"MAC","capital":"Macao","calling_code":"853","currency":"MOP","latitude":22.198745,"longitude":113.543873},"MN":{"name":"Mongolia","a2":"MN","a3":"MNG","capital":"Ulan Bator","calling_code":"976","currency":"MNT","latitude":46.862496,"longitude":103.846656},"MH":{"name":"Marshall Islands","a2":"MH","a3":"MHL","capital":"Majuro","calling_code":"692","currency":"USD","latitude":7.131474,"longitude":171.184478},"MK":{"name":"Macedonia","a2":"MK","a3":"MKD","capital":"Skopje","calling_code":"389","currency":"MKD","latitude":41.608635,"longitude":21.745275},"MU":{"name":"Mauritius","a2":"MU","a3":"MUS","capital":"Port Louis","calling_code":"230","currency":"MUR","latitude":-20.348404,"longitude":57.552152},"MT":{"name":"Malta","a2":"MT","a3":"MLT","capital":"Valletta","calling_code":"356","currency":"EUR","latitude":35.937496,"longitude":14.375416},"MW":{"name":"Malawi","a2":"MW","a3":"MWI","capital":"Lilongwe","calling_code":"265","currency":"MWK","latitude":-13.254308,"longitude":34.301525},"MV":{"name":"Maldives","a2":"MV","a3":"MDV","capital":"Male","calling_code":"960","currency":"MVR","latitude":3.202778,"longitude":73.22068},"MQ":{"name":"Martinique","a2":"MQ","a3":"MTQ","capital":"Fort-de-France","calling_code":"596","currency":"EUR","latitude":14.641528,"longitude":-61.024174},"MP":{"name":"Northern Mariana Islands","a2":"MP","a3":"MNP","capital":"Saipan","calling_code":"+1-670","currency":"USD","latitude":17.33083,"longitude":145.38469},"MS":{"name":"Montserrat","a2":"MS","a3":"MSR","capital":"Plymouth","calling_code":"+1-664","currency":"XCD","latitude":16.742498,"longitude":-62.187366},"MR":{"name":"Mauritania","a2":"MR","a3":"MRT","capital":"Nouakchott","calling_code":"222","currency":"MRO","latitude":21.00789,"longitude":-10.940835},"IM":{"name":"Isle of Man","a2":"IM","a3":"IMN","capital":"Douglas, Isle of Man","calling_code":"+44-1624","currency":"GBP","latitude":54.236107,"longitude":-4.548056},"UG":{"name":"Uganda","a2":"UG","a3":"UGA","capital":"Kampala","calling_code":"256","currency":"UGX","latitude":1.373333,"longitude":32.290275},"TZ":{"name":"Tanzania","a2":"TZ","a3":"TZA","capital":"Dodoma","calling_code":"255","currency":"TZS","latitude":-6.369028,"longitude":34.888822},"MY":{"name":"Malaysia","a2":"MY","a3":"MYS","capital":"Kuala Lumpur","calling_code":"60","currency":"MYR","latitude":4.210484,"longitude":101.975766},"MX":{"name":"Mexico","a2":"MX","a3":"MEX","capital":"Mexico City","calling_code":"52","currency":"MXN","latitude":23.634501,"longitude":-102.552784},"IL":{"name":"Israel","a2":"IL","a3":"ISR","capital":"Jerusalem","calling_code":"972","currency":"ILS","latitude":31.046051,"longitude":34.851612},"FR":{"name":"France","a2":"FR","a3":"FRA","capital":"Paris","calling_code":"33","currency":"EUR","latitude":46.227638,"longitude":2.213749},"IO":{"name":"British Indian Ocean Territory","a2":"IO","a3":"IOT","capital":"Diego Garcia","calling_code":"246","currency":"USD","latitude":-6.343194,"longitude":71.876519},"SH":{"name":"Saint Helena","a2":"SH","a3":"SHN","capital":"Jamestown","calling_code":"290","currency":"SHP","latitude":-24.143474,"longitude":-10.030696},"FI":{"name":"Finland","a2":"FI","a3":"FIN","capital":"Helsinki","calling_code":"358","currency":"EUR","latitude":61.92411,"longitude":25.748151},"FJ":{"name":"Fiji","a2":"FJ","a3":"FJI","capital":"Suva","calling_code":"679","currency":"FJD","latitude":-16.578193,"longitude":179.414413},"FK":{"name":"Falkland Islands","a2":"FK","a3":"FLK","capital":"Stanley","calling_code":"500","currency":"FKP","latitude":-51.796253,"longitude":-59.523613},"FM":{"name":"Micronesia","a2":"FM","a3":"FSM","capital":"Palikir","calling_code":"691","currency":"USD","latitude":7.425554,"longitude":150.550812},"FO":{"name":"Faroe Islands","a2":"FO","a3":"FRO","capital":"Torshavn","calling_code":"298","currency":"DKK","latitude":61.892635,"longitude":-6.911806},"NI":{"name":"Nicaragua","a2":"NI","a3":"NIC","capital":"Managua","calling_code":"505","currency":"NIO","latitude":12.865416,"longitude":-85.207229},"NL":{"name":"Netherlands","a2":"NL","a3":"NLD","capital":"Amsterdam","calling_code":"31","currency":"EUR","latitude":52.132633,"longitude":5.291266},"NO":{"name":"Norway","a2":"NO","a3":"NOR","capital":"Oslo","calling_code":"47","currency":"NOK","latitude":60.472024,"longitude":8.468946},"NA":{"name":"Namibia","a2":"NA","a3":"NAM","capital":"Windhoek","calling_code":"264","currency":"NAD","latitude":-22.95764,"longitude":18.49041},"VU":{"name":"Vanuatu","a2":"VU","a3":"VUT","capital":"Port Vila","calling_code":"678","currency":"VUV","latitude":-15.376706,"longitude":166.959158},"NC":{"name":"New Caledonia","a2":"NC","a3":"NCL","capital":"Noumea","calling_code":"687","currency":"XPF","latitude":-20.904305,"longitude":165.618042},"NE":{"name":"Niger","a2":"NE","a3":"NER","capital":"Niamey","calling_code":"227","currency":"XOF","latitude":17.607789,"longitude":8.081666},"NF":{"name":"Norfolk Island","a2":"NF","a3":"NFK","capital":"Kingston","calling_code":"672","currency":"AUD","latitude":-29.040835,"longitude":167.954712},"NG":{"name":"Nigeria","a2":"NG","a3":"NGA","capital":"Abuja","calling_code":"234","currency":"NGN","latitude":9.081999,"longitude":8.675277},"NZ":{"name":"New Zealand","a2":"NZ","a3":"NZL","capital":"Wellington","calling_code":"64","currency":"NZD","latitude":-40.900557,"longitude":174.885971},"NP":{"name":"Nepal","a2":"NP","a3":"NPL","capital":"Kathmandu","calling_code":"977","currency":"NPR","latitude":28.394857,"longitude":84.124008},"NR":{"name":"Nauru","a2":"NR","a3":"NRU","capital":"Yaren","calling_code":"674","currency":"AUD","latitude":-0.522778,"longitude":166.931503},"NU":{"name":"Niue","a2":"NU","a3":"NIU","capital":"Alofi","calling_code":"683","currency":"NZD","latitude":-19.054445,"longitude":-169.867233},"CK":{"name":"Cook Islands","a2":"CK","a3":"COK","capital":"Avarua","calling_code":"682","currency":"NZD","latitude":-21.236736,"longitude":-159.777671},"XK":{"name":"Kosovo","a2":"XK","a3":"XKX","capital":"Pristina","calling_code":"","currency":"EUR","latitude":42.602636,"longitude":20.902977},"CI":{"name":"Ivory Coast","a2":"CI","a3":"CIV","capital":"Yamoussoukro","calling_code":"225","currency":"XOF","latitude":7.539989,"longitude":-5.54708},"CH":{"name":"Switzerland","a2":"CH","a3":"CHE","capital":"Berne","calling_code":"41","currency":"CHF","latitude":46.818188,"longitude":8.227512},"CO":{"name":"Colombia","a2":"CO","a3":"COL","capital":"Bogota","calling_code":"57","currency":"COP","latitude":4.570868,"longitude":-74.297333},"CN":{"name":"China","a2":"CN","a3":"CHN","capital":"Beijing","calling_code":"86","currency":"CNY","latitude":35.86166,"longitude":104.195397},"CM":{"name":"Cameroon","a2":"CM","a3":"CMR","capital":"Yaounde","calling_code":"237","currency":"XAF","latitude":7.369722,"longitude":12.354722},"CL":{"name":"Chile","a2":"CL","a3":"CHL","capital":"Santiago","calling_code":"56","currency":"CLP","latitude":-35.675147,"longitude":-71.542969},"CC":{"name":"Cocos Islands","a2":"CC","a3":"CCK","capital":"West Island","calling_code":"61","currency":"AUD","latitude":-12.164165,"longitude":96.870956},"CA":{"name":"Canada","a2":"CA","a3":"CAN","capital":"Ottawa","calling_code":"1","currency":"CAD","latitude":56.130366,"longitude":-106.346771},"CG":{"name":"Republic of the Congo","a2":"CG","a3":"COG","capital":"Brazzaville","calling_code":"242","currency":"XAF","latitude":-0.228021,"longitude":15.827659},"CF":{"name":"Central African Republic","a2":"CF","a3":"CAF","capital":"Bangui","calling_code":"236","currency":"XAF","latitude":6.611111,"longitude":20.939444},"CD":{"name":"Democratic Republic of the Congo","a2":"CD","a3":"COD","capital":"Kinshasa","calling_code":"243","currency":"CDF","latitude":-4.038333,"longitude":21.758664},"CZ":{"name":"Czech Republic","a2":"CZ","a3":"CZE","capital":"Prague","calling_code":"420","currency":"CZK","latitude":49.817492,"longitude":15.472962},"CY":{"name":"Cyprus","a2":"CY","a3":"CYP","capital":"Nicosia","calling_code":"357","currency":"EUR","latitude":35.126413,"longitude":33.429859},"CX":{"name":"Christmas Island","a2":"CX","a3":"CXR","capital":"Flying Fish Cove","calling_code":"61","currency":"AUD","latitude":-10.447525,"longitude":105.690449},"CR":{"name":"Costa Rica","a2":"CR","a3":"CRI","capital":"San Jose","calling_code":"506","currency":"CRC","latitude":9.748917,"longitude":-83.753428},"CW":{"name":"Curacao","a2":"CW","a3":"CUW","capital":" Willemstad","calling_code":"599","currency":"ANG"},"CV":{"name":"Cape Verde","a2":"CV","a3":"CPV","capital":"Praia","calling_code":"238","currency":"CVE","latitude":16.002082,"longitude":-24.013197},"CU":{"name":"Cuba","a2":"CU","a3":"CUB","capital":"Havana","calling_code":"53","currency":"CUP","latitude":21.521757,"longitude":-77.781167},"SZ":{"name":"Swaziland","a2":"SZ","a3":"SWZ","capital":"Mbabane","calling_code":"268","currency":"SZL","latitude":-26.522503,"longitude":31.465866},"SY":{"name":"Syria","a2":"SY","a3":"SYR","capital":"Damascus","calling_code":"963","currency":"SYP","latitude":34.802075,"longitude":38.996815},"SX":{"name":"Sint Maarten","a2":"SX","a3":"SXM","capital":"Philipsburg","calling_code":"599","currency":"ANG"},"KG":{"name":"Kyrgyzstan","a2":"KG","a3":"KGZ","capital":"Bishkek","calling_code":"996","currency":"KGS","latitude":41.20438,"longitude":74.766098},"KE":{"name":"Kenya","a2":"KE","a3":"KEN","capital":"Nairobi","calling_code":"254","currency":"KES","latitude":-0.023559,"longitude":37.906193},"SS":{"name":"South Sudan","a2":"SS","a3":"SSD","capital":"Juba","calling_code":"211","currency":"SSP"},"SR":{"name":"Suriname","a2":"SR","a3":"SUR","capital":"Paramaribo","calling_code":"597","currency":"SRD","latitude":3.919305,"longitude":-56.027783},"KI":{"name":"Kiribati","a2":"KI","a3":"KIR","capital":"Tarawa","calling_code":"686","currency":"AUD","latitude":-3.370417,"longitude":-168.734039},"KH":{"name":"Cambodia","a2":"KH","a3":"KHM","capital":"Phnom Penh","calling_code":"855","currency":"KHR","latitude":12.565679,"longitude":104.990963},"KN":{"name":"Saint Kitts and Nevis","a2":"KN","a3":"KNA","capital":"Basseterre","calling_code":"+1-869","currency":"XCD","latitude":17.357822,"longitude":-62.782998},"KM":{"name":"Comoros","a2":"KM","a3":"COM","capital":"Moroni","calling_code":"269","currency":"KMF","latitude":-11.875001,"longitude":43.872219},"ST":{"name":"Sao Tome and Principe","a2":"ST","a3":"STP","capital":"Sao Tome","calling_code":"239","currency":"STD","latitude":0.18636,"longitude":6.613081},"SK":{"name":"Slovakia","a2":"SK","a3":"SVK","capital":"Bratislava","calling_code":"421","currency":"EUR","latitude":48.669026,"longitude":19.699024},"KR":{"name":"South Korea","a2":"KR","a3":"KOR","capital":"Seoul","calling_code":"82","currency":"KRW","latitude":35.907757,"longitude":127.766922},"SI":{"name":"Slovenia","a2":"SI","a3":"SVN","capital":"Ljubljana","calling_code":"386","currency":"EUR","latitude":46.151241,"longitude":14.995463},"KP":{"name":"North Korea","a2":"KP","a3":"PRK","capital":"Pyongyang","calling_code":"850","currency":"KPW","latitude":40.339852,"longitude":127.510093},"KW":{"name":"Kuwait","a2":"KW","a3":"KWT","capital":"Kuwait City","calling_code":"965","currency":"KWD","latitude":29.31166,"longitude":47.481766},"SN":{"name":"Senegal","a2":"SN","a3":"SEN","capital":"Dakar","calling_code":"221","currency":"XOF","latitude":14.497401,"longitude":-14.452362},"SM":{"name":"San Marino","a2":"SM","a3":"SMR","capital":"San Marino","calling_code":"378","currency":"EUR","latitude":43.94236,"longitude":12.457777},"SL":{"name":"Sierra Leone","a2":"SL","a3":"SLE","capital":"Freetown","calling_code":"232","currency":"SLL","latitude":8.460555,"longitude":-11.779889},"SC":{"name":"Seychelles","a2":"SC","a3":"SYC","capital":"Victoria","calling_code":"248","currency":"SCR","latitude":-4.679574,"longitude":55.491977},"KZ":{"name":"Kazakhstan","a2":"KZ","a3":"KAZ","capital":"Astana","calling_code":"7","currency":"KZT","latitude":48.019573,"longitude":66.923684},"KY":{"name":"Cayman Islands","a2":"KY","a3":"CYM","capital":"George Town","calling_code":"+1-345","currency":"KYD","latitude":19.513469,"longitude":-80.566956},"SG":{"name":"Singapore","a2":"SG","a3":"SGP","capital":"Singapur","calling_code":"65","currency":"SGD","latitude":1.352083,"longitude":103.819836},"SE":{"name":"Sweden","a2":"SE","a3":"SWE","capital":"Stockholm","calling_code":"46","currency":"SEK","latitude":60.128161,"longitude":18.643501},"SD":{"name":"Sudan","a2":"SD","a3":"SDN","capital":"Khartoum","calling_code":"249","currency":"SDG","latitude":12.862807,"longitude":30.217636},"DO":{"name":"Dominican Republic","a2":"DO","a3":"DOM","capital":"Santo Domingo","calling_code":"+1-809 and 1-829","currency":"DOP","latitude":18.735693,"longitude":-70.162651},"DM":{"name":"Dominica","a2":"DM","a3":"DMA","capital":"Roseau","calling_code":"+1-767","currency":"XCD","latitude":15.414999,"longitude":-61.370976},"DJ":{"name":"Djibouti","a2":"DJ","a3":"DJI","capital":"Djibouti","calling_code":"253","currency":"DJF","latitude":11.825138,"longitude":42.590275},"DK":{"name":"Denmark","a2":"DK","a3":"DNK","capital":"Copenhagen","calling_code":"45","currency":"DKK","latitude":56.26392,"longitude":9.501785},"VG":{"name":"British Virgin Islands","a2":"VG","a3":"VGB","capital":"Road Town","calling_code":"+1-284","currency":"USD","latitude":18.420695,"longitude":-64.639968},"DE":{"name":"Germany","a2":"DE","a3":"DEU","capital":"Berlin","calling_code":"49","currency":"EUR","latitude":51.165691,"longitude":10.451526},"YE":{"name":"Yemen","a2":"YE","a3":"YEM","capital":"Sanaa","calling_code":"967","currency":"YER","latitude":15.552727,"longitude":48.516388},"DZ":{"name":"Algeria","a2":"DZ","a3":"DZA","capital":"Algiers","calling_code":"213","currency":"DZD","latitude":28.033886,"longitude":1.659626},"US":{"name":"United States","a2":"US","a3":"USA","capital":"Washington","calling_code":"1","currency":"USD","latitude":37.09024,"longitude":-95.712891},"UY":{"name":"Uruguay","a2":"UY","a3":"URY","capital":"Montevideo","calling_code":"598","currency":"UYU","latitude":-32.522779,"longitude":-55.765835},"YT":{"name":"Mayotte","a2":"YT","a3":"MYT","capital":"Mamoudzou","calling_code":"262","currency":"EUR","latitude":-12.8275,"longitude":45.166244},"UM":{"name":"United States Minor Outlying Islands","a2":"UM","a3":"UMI","capital":"","calling_code":"1","currency":"USD","latitude":0,"longitude":0},"LB":{"name":"Lebanon","a2":"LB","a3":"LBN","capital":"Beirut","calling_code":"961","currency":"LBP","latitude":33.854721,"longitude":35.862285},"LC":{"name":"Saint Lucia","a2":"LC","a3":"LCA","capital":"Castries","calling_code":"+1-758","currency":"XCD","latitude":13.909444,"longitude":-60.978893},"LA":{"name":"Laos","a2":"LA","a3":"LAO","capital":"Vientiane","calling_code":"856","currency":"LAK","latitude":19.85627,"longitude":102.495496},"TV":{"name":"Tuvalu","a2":"TV","a3":"TUV","capital":"Funafuti","calling_code":"688","currency":"AUD","latitude":-7.109535,"longitude":177.64933},"TW":{"name":"Taiwan","a2":"TW","a3":"TWN","capital":"Taipei","calling_code":"886","currency":"TWD","latitude":23.69781,"longitude":120.960515},"TT":{"name":"Trinidad and Tobago","a2":"TT","a3":"TTO","capital":"Port of Spain","calling_code":"+1-868","currency":"TTD","latitude":10.691803,"longitude":-61.222503},"TR":{"name":"Turkey","a2":"TR","a3":"TUR","capital":"Ankara","calling_code":"90","currency":"TRY","latitude":38.963745,"longitude":35.243322},"LK":{"name":"Sri Lanka","a2":"LK","a3":"LKA","capital":"Colombo","calling_code":"94","currency":"LKR","latitude":7.873054,"longitude":80.771797},"LI":{"name":"Liechtenstein","a2":"LI","a3":"LIE","capital":"Vaduz","calling_code":"423","currency":"CHF","latitude":47.166,"longitude":9.555373},"LV":{"name":"Latvia","a2":"LV","a3":"LVA","capital":"Riga","calling_code":"371","currency":"EUR","latitude":56.879635,"longitude":24.603189},"TO":{"name":"Tonga","a2":"TO","a3":"TON","capital":"Nuku'alofa","calling_code":"676","currency":"TOP","latitude":-21.178986,"longitude":-175.198242},"LT":{"name":"Lithuania","a2":"LT","a3":"LTU","capital":"Vilnius","calling_code":"370","currency":"LTL","latitude":55.169438,"longitude":23.881275},"LU":{"name":"Luxembourg","a2":"LU","a3":"LUX","capital":"Luxembourg","calling_code":"352","currency":"EUR","latitude":49.815273,"longitude":6.129583},"LR":{"name":"Liberia","a2":"LR","a3":"LBR","capital":"Monrovia","calling_code":"231","currency":"LRD","latitude":6.428055,"longitude":-9.429499},"LS":{"name":"Lesotho","a2":"LS","a3":"LSO","capital":"Maseru","calling_code":"266","currency":"LSL","latitude":-29.609988,"longitude":28.233608},"TH":{"name":"Thailand","a2":"TH","a3":"THA","capital":"Bangkok","calling_code":"66","currency":"THB","latitude":15.870032,"longitude":100.992541},"TF":{"name":"French Southern Territories","a2":"TF","a3":"ATF","capital":"Port-aux-Francais","calling_code":"","currency":"EUR","latitude":-49.280366,"longitude":69.348557},"TG":{"name":"Togo","a2":"TG","a3":"TGO","capital":"Lome","calling_code":"228","currency":"XOF","latitude":8.619543,"longitude":0.824782},"TD":{"name":"Chad","a2":"TD","a3":"TCD","capital":"N'Djamena","calling_code":"235","currency":"XAF","latitude":15.454166,"longitude":18.732207},"TC":{"name":"Turks and Caicos Islands","a2":"TC","a3":"TCA","capital":"Cockburn Town","calling_code":"+1-649","currency":"USD","latitude":21.694025,"longitude":-71.797928},"LY":{"name":"Libya","a2":"LY","a3":"LBY","capital":"Tripolis","calling_code":"218","currency":"LYD","latitude":26.3351,"longitude":17.228331},"VA":{"name":"Vatican","a2":"VA","a3":"VAT","capital":"Vatican City","calling_code":"379","currency":"EUR","latitude":41.902916,"longitude":12.453389},"VC":{"name":"Saint Vincent and the Grenadines","a2":"VC","a3":"VCT","capital":"Kingstown","calling_code":"+1-784","currency":"XCD","latitude":12.984305,"longitude":-61.287228},"AE":{"name":"United Arab Emirates","a2":"AE","a3":"ARE","capital":"Abu Dhabi","calling_code":"971","currency":"AED","latitude":23.424076,"longitude":53.847818},"AD":{"name":"Andorra","a2":"AD","a3":"AND","capital":"Andorra la Vella","calling_code":"376","currency":"EUR","latitude":42.546245,"longitude":1.601554},"AG":{"name":"Antigua and Barbuda","a2":"AG","a3":"ATG","capital":"St. John's","calling_code":"+1-268","currency":"XCD","latitude":17.060816,"longitude":-61.796428},"AF":{"name":"Afghanistan","a2":"AF","a3":"AFG","capital":"Kabul","calling_code":"93","currency":"AFN","latitude":33.93911,"longitude":67.709953},"AI":{"name":"Anguilla","a2":"AI","a3":"AIA","capital":"The Valley","calling_code":"+1-264","currency":"XCD","latitude":18.220554,"longitude":-63.068615},"VI":{"name":"U.S. Virgin Islands","a2":"VI","a3":"VIR","capital":"Charlotte Amalie","calling_code":"+1-340","currency":"USD","latitude":18.335765,"longitude":-64.896335},"IS":{"name":"Iceland","a2":"IS","a3":"ISL","capital":"Reykjavik","calling_code":"354","currency":"ISK","latitude":64.963051,"longitude":-19.020835},"IR":{"name":"Iran","a2":"IR","a3":"IRN","capital":"Tehran","calling_code":"98","currency":"IRR","latitude":32.427908,"longitude":53.688046},"AM":{"name":"Armenia","a2":"AM","a3":"ARM","capital":"Yerevan","calling_code":"374","currency":"AMD","latitude":40.069099,"longitude":45.038189},"AL":{"name":"Albania","a2":"AL","a3":"ALB","capital":"Tirana","calling_code":"355","currency":"ALL","latitude":41.153332,"longitude":20.168331},"AO":{"name":"Angola","a2":"AO","a3":"AGO","capital":"Luanda","calling_code":"244","currency":"AOA","latitude":-11.202692,"longitude":17.873887},"AQ":{"name":"Antarctica","a2":"AQ","a3":"ATA","capital":"","calling_code":"","currency":"","latitude":-75.250973,"longitude":-0.071389},"AS":{"name":"American Samoa","a2":"AS","a3":"ASM","capital":"Pago Pago","calling_code":"+1-684","currency":"USD","latitude":-14.270972,"longitude":-170.132217},"AR":{"name":"Argentina","a2":"AR","a3":"ARG","capital":"Buenos Aires","calling_code":"54","currency":"ARS","latitude":-38.416097,"longitude":-63.616672},"AU":{"name":"Australia","a2":"AU","a3":"AUS","capital":"Canberra","calling_code":"61","currency":"AUD","latitude":-25.274398,"longitude":133.775136},"AT":{"name":"Austria","a2":"AT","a3":"AUT","capital":"Vienna","calling_code":"43","currency":"EUR","latitude":47.516231,"longitude":14.550072},"AW":{"name":"Aruba","a2":"AW","a3":"ABW","capital":"Oranjestad","calling_code":"297","currency":"AWG","latitude":12.52111,"longitude":-69.968338},"IN":{"name":"India","a2":"IN","a3":"IND","capital":"New Delhi","calling_code":"91","currency":"INR","latitude":20.593684,"longitude":78.96288},"AX":{"name":"Aland Islands","a2":"AX","a3":"ALA","capital":"Mariehamn","calling_code":"+358-18","currency":"EUR"},"AZ":{"name":"Azerbaijan","a2":"AZ","a3":"AZE","capital":"Baku","calling_code":"994","currency":"AZN","latitude":40.143105,"longitude":47.576927},"IE":{"name":"Ireland","a2":"IE","a3":"IRL","capital":"Dublin","calling_code":"353","currency":"EUR","latitude":53.41291,"longitude":-8.24389},"ID":{"name":"Indonesia","a2":"ID","a3":"IDN","capital":"Jakarta","calling_code":"62","currency":"IDR","latitude":-0.789275,"longitude":113.921327},"UA":{"name":"Ukraine","a2":"UA","a3":"UKR","capital":"Kiev","calling_code":"380","currency":"UAH","latitude":48.379433,"longitude":31.16558},"QA":{"name":"Qatar","a2":"QA","a3":"QAT","capital":"Doha","calling_code":"974","currency":"QAR","latitude":25.354826,"longitude":51.183884},"MZ":{"name":"Mozambique","a2":"MZ","a3":"MOZ","capital":"Maputo","calling_code":"258","currency":"MZN","latitude":-18.665695,"longitude":35.529562}}